{
"type": "FeatureCollection",
"name": "BANJIR1",
"crs": { "type": "name", "properties": { "name": "urn:ogc:def:crs:OGC:1.3:CRS84" } },
"features": [
{ "type": "Feature", "properties": { "id": 1 }, "geometry": { "type": "MultiPolygon", "coordinates": [ [ [ [ 107.614959154000076, -6.960653479999962 ], [ 107.615048383000044, -6.960653479999962 ], [ 107.615095972000063, -6.960635633999971 ], [ 107.61515545900005, -6.960623736999935 ], [ 107.61542909700006, -6.960623736999935 ], [ 107.615750325000079, -6.96063563499996 ], [ 107.616125089000036, -6.960647531999939 ], [ 107.616375, -6.960655555999949 ], [ 107.61653554600008, -6.960677275999956 ], [ 107.616761595000071, -6.960701069999971 ], [ 107.616957900000045, -6.960730812999941 ], [ 107.617201796000074, -6.960784350999973 ], [ 107.617552766000074, -6.96087358099993 ], [ 107.617784764000078, -6.960921169999949 ], [ 107.618082196000046, -6.960974706999934 ], [ 107.61844506400007, -6.961052040999959 ], [ 107.61865326700007, -6.961099629999978 ], [ 107.619022083000061, -6.961236447999966 ], [ 107.619230286000061, -6.961301883999965 ], [ 107.619557462000046, -6.961432753999929 ], [ 107.619765664000056, -6.961521983999944 ], [ 107.620092841000087, -6.961658802999978 ], [ 107.620342684000036, -6.961765878999927 ], [ 107.62092530700005, -6.962020534999965 ], [ 107.620983274000082, -6.962045871999976 ], [ 107.621240931000045, -6.962158489999979 ], [ 107.62188933300007, -6.962414280999951 ], [ 107.622442558000046, -6.962634381999976 ], [ 107.622767060000058, -6.962744850999968 ], [ 107.623001732000034, -6.962824738999927 ], [ 107.623172, -6.962921 ], [ 107.623611423000057, -6.963100409999981 ], [ 107.623846440000079, -6.963157863999925 ], [ 107.624019990000079, -6.963159829999938 ], [ 107.624053897000067, -6.963198084999931 ], [ 107.624233102000062, -6.963270887999954 ], [ 107.624530535000076, -6.963395808999962 ], [ 107.625101606000044, -6.963550473999931 ], [ 107.625476371000047, -6.963669446999972 ], [ 107.625886828000034, -6.963800316999937 ], [ 107.626481693000073, -6.963954981999962 ], [ 107.627344248000043, -6.964145339999959 ], [ 107.628432851000071, -6.964317849999929 ], [ 107.628873052000074, -6.964335695999978 ], [ 107.629646377000086, -6.964246466999953 ], [ 107.629705863000083, -6.96444872099994 ], [ 107.630473239000082, -6.964520104999963 ], [ 107.631347691000087, -6.964561744999969 ], [ 107.634768167000061, -6.965049534999935 ], [ 107.634958674000075, -6.965077294999958 ], [ 107.63583888900007, -6.965205555999944 ], [ 107.636136356000065, -6.965245839999966 ], [ 107.636484893000045, -6.965276268999958 ], [ 107.636523007000051, -6.965279595999959 ], [ 107.63660361500007, -6.965668216999973 ], [ 107.636680117000083, -6.965910998999959 ], [ 107.636695931000077, -6.965957534999973 ], [ 107.636706832000073, -6.965981382999928 ], [ 107.63671901500004, -6.966007794999939 ], [ 107.636729886000069, -6.966026263999936 ], [ 107.636751378000042, -6.966078355999969 ], [ 107.636761999000043, -6.966111978999947 ], [ 107.636765234000052, -6.966155595999965 ], [ 107.636765334000074, -6.966173526999967 ], [ 107.636765120000064, -6.966188769999974 ], [ 107.636757555000088, -6.966233224999939 ], [ 107.636750204000066, -6.966262435999965 ], [ 107.636749120000047, -6.966267115999926 ], [ 107.63672037200007, -6.966326061999951 ], [ 107.636705431000053, -6.966372906999936 ], [ 107.636700789000088, -6.966398635999951 ], [ 107.636694893000083, -6.966496887999938 ], [ 107.636617390000083, -6.966883027999927 ], [ 107.636579125000083, -6.967103831999964 ], [ 107.636545316000081, -6.967323500999953 ], [ 107.636516004000043, -6.967468834999977 ], [ 107.63643804700007, -6.967780036999955 ], [ 107.636411151000061, -6.967880357999945 ], [ 107.636347146000048, -6.968199794999975 ], [ 107.636330891000057, -6.968288350999956 ], [ 107.636313293000057, -6.968350613999974 ], [ 107.636287320000065, -6.96841292299996 ], [ 107.63626124700005, -6.968457300999944 ], [ 107.636224500000083, -6.968518475999929 ], [ 107.636149531000058, -6.968595524999955 ], [ 107.636044854000033, -6.968699994999952 ], [ 107.635987856000042, -6.968776822999928 ], [ 107.635922609000033, -6.96887641099994 ], [ 107.635821875000033, -6.969058461999964 ], [ 107.63580191300008, -6.969094869999935 ], [ 107.635629595000069, -6.969551457999955 ], [ 107.635575313000061, -6.96970367299997 ], [ 107.635697693000054, -6.969745522999972 ], [ 107.635652114000038, -6.969895980999979 ], [ 107.635708297000065, -6.969930097999963 ], [ 107.635681412000054, -6.970000540999933 ], [ 107.635780698000076, -6.970040154999936 ], [ 107.635801368000045, -6.970295617999966 ], [ 107.635778555000059, -6.970406147999938 ], [ 107.635757, -6.970682 ], [ 107.635725673000081, -6.970726782999975 ], [ 107.635642345000065, -6.970716727999957 ], [ 107.635618540000053, -6.97091004899994 ], [ 107.635653821000062, -6.970944994999968 ], [ 107.635671738000042, -6.97100921599997 ], [ 107.635675732000038, -6.971038840999938 ], [ 107.635753264000073, -6.971039364999967 ], [ 107.635755370000084, -6.971073781999962 ], [ 107.635829074000071, -6.97107432699994 ], [ 107.635829416000036, -6.971135533999927 ], [ 107.635653392000052, -6.971151817999953 ], [ 107.635692185000039, -6.971242457999949 ], [ 107.635727919000033, -6.971299640999973 ], [ 107.635807373000034, -6.97138718399998 ], [ 107.635835891000056, -6.971442406999927 ], [ 107.635834085000056, -6.971504527999969 ], [ 107.635831952000046, -6.971577862999936 ], [ 107.635830785000053, -6.97161798999997 ], [ 107.635831980000034, -6.971679697999946 ], [ 107.635839283000053, -6.97173573799995 ], [ 107.635816541000054, -6.971742905999974 ], [ 107.635801029000049, -6.971793201999958 ], [ 107.635788357000081, -6.97183774399997 ], [ 107.635775644000034, -6.971875113999943 ], [ 107.635749979000082, -6.971906817999979 ], [ 107.635731756000041, -6.971985820999976 ], [ 107.635714785000062, -6.972031821999963 ], [ 107.635686288000045, -6.972070713999926 ], [ 107.63566484100005, -6.972086613999977 ], [ 107.635658489000036, -6.972234409999942 ], [ 107.635648913000068, -6.972319102999961 ], [ 107.635647878000043, -6.972390836999978 ], [ 107.635628332000067, -6.972489930999927 ], [ 107.635617272000047, -6.972566024999935 ], [ 107.635608963000038, -6.972620584999959 ], [ 107.635584059000053, -6.972788567999942 ], [ 107.635329808000051, -6.972765599999946 ], [ 107.635100043000079, -6.972756840999978 ], [ 107.63499947300005, -6.972744491999947 ], [ 107.634827088000065, -6.972726804999979 ], [ 107.634746625000048, -6.972715776999962 ], [ 107.634653162000063, -6.972690476999958 ], [ 107.634615088000032, -6.97268566799994 ], [ 107.634358590000033, -6.972857347999934 ], [ 107.634295325000039, -6.972898505999979 ], [ 107.634105847000058, -6.973021329999938 ], [ 107.633990030000064, -6.973106615999939 ], [ 107.633815630000072, -6.973242438999932 ], [ 107.633642763000068, -6.973395467999978 ], [ 107.633367007000061, -6.973635144999946 ], [ 107.633121336000045, -6.973863177999931 ], [ 107.633029442000066, -6.973954153999955 ], [ 107.632943006000062, -6.974066446999927 ], [ 107.632894585000088, -6.974137010999925 ], [ 107.632869056000061, -6.974193101999958 ], [ 107.632855011000061, -6.97424912799994 ], [ 107.632850985000061, -6.974299360999964 ], [ 107.632842756000059, -6.974368265999942 ], [ 107.632843046000062, -6.974420111999962 ], [ 107.632870009000044, -6.974620598999934 ], [ 107.63289220200005, -6.974738108999929 ], [ 107.632903267000074, -6.974843268999962 ], [ 107.632963738000058, -6.975093815999969 ], [ 107.633013365000068, -6.975237800999935 ], [ 107.63305871700004, -6.975319731999946 ], [ 107.633090633000052, -6.975363260999927 ], [ 107.633170241000073, -6.975443494999979 ], [ 107.633452777000059, -6.975646279999978 ], [ 107.633952918000034, -6.975986439999929 ], [ 107.634024769000064, -6.976063654999962 ], [ 107.634123914000043, -6.976220205999937 ], [ 107.634194549000085, -6.976357392999944 ], [ 107.634295878000046, -6.976645771999927 ], [ 107.634328244000073, -6.976775990999954 ], [ 107.634342417000084, -6.97693454299997 ], [ 107.634338545000048, -6.977014460999953 ], [ 107.634316381000076, -6.977094532999956 ], [ 107.634266747000083, -6.977204793999931 ], [ 107.634181876000071, -6.97743240799997 ], [ 107.634125, -6.977611110999931 ], [ 107.634098779000055, -6.977736513999957 ], [ 107.634010114000034, -6.978060963999951 ], [ 107.633989751000058, -6.978117288999954 ], [ 107.633931359000087, -6.97823157299996 ], [ 107.633893331000081, -6.978289531999962 ], [ 107.633650509000063, -6.978565749999973 ], [ 107.633034151000061, -6.97909746299996 ], [ 107.632903714150927, -6.979211327664846 ], [ 107.632449422000036, -6.978044891999957 ], [ 107.63157469500004, -6.976841165999929 ], [ 107.629164277818276, -6.974375029584162 ], [ 107.628111925094899, -6.972240256916724 ], [ 107.625850529000047, -6.96917263399996 ], [ 107.622726440000065, -6.966620520999925 ], [ 107.617708666743695, -6.964452846763675 ], [ 107.613559390291485, -6.96583593891441 ], [ 107.610372264900647, -6.966677821093119 ], [ 107.607215206730501, -6.965926140576415 ], [ 107.605560787000059, -6.966755829999954 ], [ 107.604599358532369, -6.96568560281107 ], [ 107.60315614700005, -6.966067464999981 ], [ 107.602464585864936, -6.966798089975791 ], [ 107.600107215000037, -6.967254510999965 ], [ 107.598364855000057, -6.970261995999977 ], [ 107.597217855858347, -6.96959434149793 ], [ 107.596195570355633, -6.96951917344626 ], [ 107.595083083190914, -6.969895013704612 ], [ 107.59523341929426, -6.971563744451694 ], [ 107.593038512185473, -6.971894483879042 ], [ 107.592497302213474, -6.970819580740154 ], [ 107.591880924189752, -6.971233005024343 ], [ 107.592377033330791, -6.972495828292407 ], [ 107.590272327884023, -6.973277576029778 ], [ 107.588566435000075, -6.971429610999962 ], [ 107.58849007200007, -6.971338449999962 ], [ 107.587521337000055, -6.97107970999997 ], [ 107.587697259000038, -6.970477465999977 ], [ 107.587752408000085, -6.969976949999932 ], [ 107.587897339000051, -6.969329793999975 ], [ 107.587676651000038, -6.969335513999965 ], [ 107.587696836000077, -6.968827547999979 ], [ 107.587702285000034, -6.968250799999964 ], [ 107.587719363000076, -6.967699811999978 ], [ 107.587771606000047, -6.967277747999958 ], [ 107.58786232600005, -6.967064926999967 ], [ 107.587869922000039, -6.967039712999963 ], [ 107.587889131000054, -6.967013324999925 ], [ 107.587902017000033, -6.96691952599997 ], [ 107.587966284000061, -6.966769972999941 ], [ 107.588028385000086, -6.966574524999942 ], [ 107.588084869000056, -6.96640206099994 ], [ 107.588164064000068, -6.966236206999952 ], [ 107.588417932000084, -6.965750639999953 ], [ 107.58843494000007, -6.965710376999937 ], [ 107.588483, -6.965520456999968 ], [ 107.588657234000038, -6.964828015999956 ], [ 107.588706094000088, -6.964705709999976 ], [ 107.588716989000034, -6.964404668999975 ], [ 107.588696514000048, -6.964305410999941 ], [ 107.588577588000078, -6.963780484999972 ], [ 107.588519155000085, -6.96365061299997 ], [ 107.587805656000057, -6.963538938999932 ], [ 107.587524100000053, -6.963511787999948 ], [ 107.587512363000087, -6.963465944999939 ], [ 107.587764055000036, -6.962521357999947 ], [ 107.587904682000044, -6.962521357999947 ], [ 107.588303340000039, -6.962526673999946 ], [ 107.588341600000035, -6.962527183999953 ], [ 107.588350831000071, -6.962527306999959 ], [ 107.588469878000069, -6.962518902999932 ], [ 107.588856466000038, -6.96249161399993 ], [ 107.589159848000065, -6.96246187099996 ], [ 107.589623842000037, -6.962420229999964 ], [ 107.589939121000043, -6.962390486999936 ], [ 107.590290091000043, -6.962366691999932 ], [ 107.590438808000044, -6.962360743999966 ], [ 107.590694600000063, -6.962360743999966 ], [ 107.590902803000063, -6.962360742999977 ], [ 107.591408438000087, -6.962331 ], [ 107.592187712000054, -6.962271513999951 ], [ 107.59291939600007, -6.962212027999954 ], [ 107.593448826000042, -6.962182284999926 ], [ 107.593603039000072, -6.96217347299995 ], [ 107.594073435000041, -6.962146591999954 ], [ 107.594882451000046, -6.962069259999964 ], [ 107.596072182000057, -6.961974080999937 ], [ 107.596446947000061, -6.961920543999952 ], [ 107.596994223000081, -6.961861056999965 ], [ 107.597785394000084, -6.961813466999956 ], [ 107.598237491000077, -6.961783724999975 ], [ 107.598897792000059, -6.961736135999956 ], [ 107.599552143000039, -6.961694493999971 ], [ 107.600129163000076, -6.961658802999978 ], [ 107.600361160000034, -6.961635007999973 ], [ 107.600576024000077, -6.961615325999958 ], [ 107.600595872000042, -6.961613507999971 ], [ 107.601140434000058, -6.96156362499994 ], [ 107.60197919400008, -6.96153388099998 ], [ 107.604593825000052, -6.961390533999975 ], [ 107.604691780000053, -6.961385163999978 ], [ 107.606006431000083, -6.961313780999944 ], [ 107.607172367000032, -6.961230499999942 ], [ 107.608165792000079, -6.96114721899994 ], [ 107.608646536000037, -6.961100881999926 ], [ 107.608659530000068, -6.961099629999978 ], [ 107.60871602800006, -6.961094332999949 ], [ 107.609230601000036, -6.961046091999947 ], [ 107.609902799000054, -6.961022296999943 ], [ 107.610658278000074, -6.960980655999947 ], [ 107.610783199000082, -6.960968758999968 ], [ 107.611378064000064, -6.960915220999937 ], [ 107.611782573000085, -6.960885477999966 ], [ 107.612085954000065, -6.960849785999926 ], [ 107.612454771000046, -6.960802196999964 ], [ 107.612823587000037, -6.96077840199996 ], [ 107.613281634000089, -6.960754607999945 ], [ 107.613721833000056, -6.960712966999949 ], [ 107.614072805000035, -6.960647531999939 ], [ 107.614304802000049, -6.960641583999973 ], [ 107.614447569000049, -6.960623736999935 ], [ 107.614661721000061, -6.960605890999943 ], [ 107.614828283000065, -6.960623737999981 ], [ 107.614959154000076, -6.960653479999962 ] ] ] ] } }
]
}
