{
"type": "FeatureCollection",
"name": "BANJIR2",
"crs": { "type": "name", "properties": { "name": "urn:ogc:def:crs:OGC:1.3:CRS84" } },
"features": [
{ "type": "Feature", "properties": { "id": 1 }, "geometry": { "type": "MultiPolygon", "coordinates": [ [ [ [ 107.632352726000079, -6.979692311999941 ], [ 107.631788479000079, -6.98016456199997 ], [ 107.631637890000036, -6.980300601999943 ], [ 107.630787356000042, -6.980900801999951 ], [ 107.63050449900004, -6.981141623999974 ], [ 107.630383106000068, -6.981246430999931 ], [ 107.630264799000088, -6.981391371999962 ], [ 107.630153297000049, -6.981564142999957 ], [ 107.630046674000084, -6.981753622999975 ], [ 107.629892962000042, -6.982080845999974 ], [ 107.62972768700007, -6.982479861999934 ], [ 107.629685727000037, -6.98260212799994 ], [ 107.629664069000057, -6.982673693999971 ], [ 107.629637446000061, -6.982817489999945 ], [ 107.629620221000039, -6.982946697999978 ], [ 107.629619332000061, -6.983001694999928 ], [ 107.629627978000087, -6.983081703999972 ], [ 107.629723329000058, -6.983441288999927 ], [ 107.629746771000043, -6.983525319999956 ], [ 107.62976937500008, -6.983562044999928 ], [ 107.629822895000075, -6.983620731999963 ], [ 107.629897551000056, -6.983673764999935 ], [ 107.629970845000059, -6.983742124999935 ], [ 107.629995041000086, -6.983789808999973 ], [ 107.630016950000083, -6.983856633999949 ], [ 107.63002683600007, -6.983912765999946 ], [ 107.630045089000077, -6.984053443999926 ], [ 107.630114598000034, -6.984353437999971 ], [ 107.630148535000046, -6.984410827999966 ], [ 107.630182196000078, -6.984453010999971 ], [ 107.630213032000086, -6.984479931999942 ], [ 107.630230722000078, -6.984487587999979 ], [ 107.630274128000053, -6.984501086999956 ], [ 107.630406334000043, -6.984531131999972 ], [ 107.630447452000055, -6.984541229999934 ], [ 107.630535289000079, -6.984553873999971 ], [ 107.630582007000044, -6.984556419999933 ], [ 107.630641876000084, -6.984564453999951 ], [ 107.630687434000038, -6.984580936999976 ], [ 107.630737878000048, -6.984615323999947 ], [ 107.630769226000041, -6.984658185999933 ], [ 107.630840123000041, -6.984841175999975 ], [ 107.63085985400005, -6.984946267999931 ], [ 107.630910204000088, -6.985269237999944 ], [ 107.630935873000055, -6.985360921999927 ], [ 107.63111529400004, -6.985859958999981 ], [ 107.631350887000053, -6.986552189999941 ], [ 107.63145684300008, -6.986885135999955 ], [ 107.631528956000068, -6.987176636999948 ], [ 107.631562687000041, -6.987388764999935 ], [ 107.631563458000073, -6.987526479999929 ], [ 107.631552486000032, -6.987618353999949 ], [ 107.631531835000033, -6.987691153999947 ], [ 107.631435094000039, -6.987850453999954 ], [ 107.631296527000075, -6.988061631999926 ], [ 107.631135192000045, -6.988309278999964 ], [ 107.63108604100006, -6.988420493999968 ], [ 107.631046579000042, -6.988552694999953 ], [ 107.631026131000056, -6.988661836999938 ], [ 107.631015427000079, -6.988801527999954 ], [ 107.631037994000053, -6.989071101999969 ], [ 107.631047944038784, -6.98932158963864 ], [ 107.629664995000041, -6.988020065999933 ], [ 107.627577131000066, -6.984571926999934 ], [ 107.623628150812792, -6.982594656034321 ], [ 107.621854184793378, -6.98067035391156 ], [ 107.62149337814536, -6.976370741356014 ], [ 107.621794050352051, -6.972010994359135 ], [ 107.617283606000058, -6.971684350999965 ], [ 107.613224892461616, -6.971529918828446 ], [ 107.609568073000048, -6.972529197999961 ], [ 107.606781064000074, -6.974613832999978 ], [ 107.604912230000082, -6.972744741999975 ], [ 107.600868861000038, -6.975317405999931 ], [ 107.597469668831522, -6.975979867487331 ], [ 107.594312544000047, -6.97738844099996 ], [ 107.591889184000081, -6.978889494999976 ], [ 107.589457376000041, -6.976772284999981 ], [ 107.589521054000045, -6.976341549999972 ], [ 107.589506397000036, -6.976287114999934 ], [ 107.589477351000085, -6.976227019999953 ], [ 107.589439753000079, -6.976178449999964 ], [ 107.589405074000069, -6.976138470999956 ], [ 107.589338778000069, -6.976092926999968 ], [ 107.589298356000086, -6.976052978999974 ], [ 107.589249273000064, -6.976004471999943 ], [ 107.589159642000084, -6.975893062999944 ], [ 107.589052908000042, -6.975804701999948 ], [ 107.588989610000056, -6.975782095999932 ], [ 107.588909082000043, -6.975759583999945 ], [ 107.588860109000052, -6.975731159999953 ], [ 107.58880799700006, -6.975653976999979 ], [ 107.588738655000043, -6.975576887999978 ], [ 107.588683703000072, -6.97550545799993 ], [ 107.588617265000039, -6.975434091999944 ], [ 107.588550701000088, -6.975339771999927 ], [ 107.588501680000036, -6.97530274099995 ], [ 107.588429452000071, -6.975222797999947 ], [ 107.588377419000039, -6.975159960999974 ], [ 107.588279442000044, -6.975097374999962 ], [ 107.588137578000044, -6.97499815599997 ], [ 107.587963221000052, -6.974889598999937 ], [ 107.587959805000082, -6.97465178799996 ], [ 107.587979310000037, -6.974285301999942 ], [ 107.58799595000005, -6.974141540999938 ], [ 107.588009180000086, -6.974027242999966 ], [ 107.587990991000083, -6.973885322999934 ], [ 107.587992039000085, -6.973798762999934 ], [ 107.587971744000072, -6.973703609999973 ], [ 107.58795364100007, -6.973613259999979 ], [ 107.587948586000039, -6.973493968999946 ], [ 107.587951891000046, -6.973431736999942 ], [ 107.587986322000063, -6.973366471999952 ], [ 107.588016778000053, -6.973308740999926 ], [ 107.588060825000071, -6.973225250999974 ], [ 107.588091416000054, -6.973167264999972 ], [ 107.588104861000033, -6.973101655999926 ], [ 107.588109919000033, -6.972888047999959 ], [ 107.588147344000049, -6.972746789999974 ], [ 107.588289796000083, -6.972404083999947 ], [ 107.588239570000042, -6.972298074999969 ], [ 107.588514660000044, -6.971576826999978 ], [ 107.588566435000075, -6.971429610999962 ], [ 107.590272327884023, -6.973277576029778 ], [ 107.592377033330791, -6.972495828292407 ], [ 107.591880924189752, -6.971233005024343 ], [ 107.592497302213474, -6.970819580740154 ], [ 107.593038512185473, -6.971894483879042 ], [ 107.59523341929426, -6.971563744451694 ], [ 107.595083083190914, -6.969895013704612 ], [ 107.596195570355633, -6.96951917344626 ], [ 107.597217855858347, -6.96959434149793 ], [ 107.598364855000057, -6.970261995999977 ], [ 107.600107215000037, -6.967254510999965 ], [ 107.602464585864936, -6.966798089975791 ], [ 107.60315614700005, -6.966067464999981 ], [ 107.604599358532369, -6.96568560281107 ], [ 107.605560787000059, -6.966755829999954 ], [ 107.607215206730501, -6.965926140576415 ], [ 107.610372264900647, -6.966677821093119 ], [ 107.613559390291485, -6.96583593891441 ], [ 107.617708666743695, -6.964452846763675 ], [ 107.622726440000065, -6.966620520999925 ], [ 107.625850529000047, -6.96917263399996 ], [ 107.628111925094899, -6.972240256916724 ], [ 107.629164277818276, -6.974375029584162 ], [ 107.63157469500004, -6.976841165999929 ], [ 107.632449422000036, -6.978044891999957 ], [ 107.632903714150927, -6.979211327664846 ], [ 107.632352726000079, -6.979692311999941 ] ] ] ] } }
]
}
