{
"type": "FeatureCollection",
"name": "BANJIR3",
"crs": { "type": "name", "properties": { "name": "urn:ogc:def:crs:OGC:1.3:CRS84" } },
"features": [
{ "type": "Feature", "properties": { "id": 1 }, "geometry": { "type": "MultiPolygon", "coordinates": [ [ [ [ 107.631064733000073, -6.989744243999951 ], [ 107.631067397000038, -6.989878122999926 ], [ 107.631045378000067, -6.990048481999963 ], [ 107.630995348000056, -6.990246075999949 ], [ 107.630895415000055, -6.99051906699998 ], [ 107.630766037000058, -6.990772069999935 ], [ 107.630719291000048, -6.990813923999951 ], [ 107.630676335000032, -6.990846112999975 ], [ 107.630208913757301, -6.991149748436376 ], [ 107.630041318119609, -6.991230712512555 ], [ 107.629558003000056, -6.991420754999979 ], [ 107.629223929000034, -6.991511884999966 ], [ 107.629101640000044, -6.991545242999962 ], [ 107.628809910000086, -6.991573589999973 ], [ 107.628396156000065, -6.991572540999925 ], [ 107.628350018000049, -6.991569985999945 ], [ 107.62825471900004, -6.991569908999963 ], [ 107.628210769000077, -6.991565904999959 ], [ 107.627380780000067, -6.991490293999959 ], [ 107.626888717000043, -6.991416526999956 ], [ 107.626721093000072, -6.991356328999927 ], [ 107.626663, -6.991334 ], [ 107.626509462000058, -6.991252542999973 ], [ 107.626393001000054, -6.991193 ], [ 107.626092, -6.991027 ], [ 107.625884001000088, -6.990856 ], [ 107.625803889000053, -6.990769442999976 ], [ 107.625728939000055, -6.99068846199998 ], [ 107.62571, -6.990668 ], [ 107.625534279000078, -6.990461177999975 ], [ 107.625484, -6.990402 ], [ 107.625347619000081, -6.990229166999939 ], [ 107.625267, -6.990127 ], [ 107.625, -6.989753 ], [ 107.624677, -6.98937700099998 ], [ 107.624624952000033, -6.989290011999969 ], [ 107.624534, -6.989138000999958 ], [ 107.624351967000052, -6.988750463999963 ], [ 107.624252354000078, -6.988538393999931 ], [ 107.624216, -6.988461 ], [ 107.623924, -6.98809 ], [ 107.623558, -6.987860998999963 ], [ 107.623557900000037, -6.987860956999953 ], [ 107.623527050000064, -6.987847619999968 ], [ 107.623409525000056, -6.987796809999963 ], [ 107.623292, -6.987746 ], [ 107.623186738000072, -6.987723443999926 ], [ 107.623081476000038, -6.98770088699996 ], [ 107.623022889000083, -6.987688332999937 ], [ 107.622844001000033, -6.98765 ], [ 107.622546663000037, -6.987633831999972 ], [ 107.622421, -6.987627 ], [ 107.622214581000037, -6.98765487999998 ], [ 107.621651, -6.987731 ], [ 107.620997, -6.9879 ], [ 107.620426, -6.988077 ], [ 107.620271010000067, -6.988099204999969 ], [ 107.62007, -6.98812800099995 ], [ 107.619862240000089, -6.988119641999958 ], [ 107.619722, -6.988114 ], [ 107.619481, -6.988016 ], [ 107.619441316000064, -6.987988808999944 ], [ 107.619265, -6.987868000999981 ], [ 107.619205419000082, -6.987764518999938 ], [ 107.619189, -6.987736000999973 ], [ 107.61918890700008, -6.987713613999972 ], [ 107.619188359000077, -6.987582220999968 ], [ 107.619188, -6.987496 ], [ 107.619211, -6.987132 ], [ 107.61917599800006, -6.986842998999975 ], [ 107.619144782000035, -6.986779397999953 ], [ 107.619042001000082, -6.98657 ], [ 107.618817, -6.986315 ], [ 107.618666615000052, -6.98625543299994 ], [ 107.618509, -6.986193 ], [ 107.618456214000048, -6.986183718999939 ], [ 107.618236, -6.986145 ], [ 107.618056442000068, -6.986125049999941 ], [ 107.617804, -6.986097000999962 ], [ 107.617431, -6.986065998999948 ], [ 107.617149001000087, -6.986018 ], [ 107.616892001000053, -6.985904000999938 ], [ 107.616816033000077, -6.985823120999953 ], [ 107.616691, -6.985690000999966 ], [ 107.616628669000079, -6.98552544599994 ], [ 107.616616, -6.985492000999955 ], [ 107.616594949000046, -6.985361234999971 ], [ 107.616564001000086, -6.985169 ], [ 107.616564448000076, -6.985139443999969 ], [ 107.61657, -6.984772 ], [ 107.616593436000073, -6.98459539199996 ], [ 107.616625999000064, -6.98435 ], [ 107.616643086000067, -6.984313004999933 ], [ 107.616741001000037, -6.984101 ], [ 107.616802003000089, -6.983991721999928 ], [ 107.61688, -6.983852 ], [ 107.617127, -6.983586 ], [ 107.617631, -6.983285 ], [ 107.618167999000036, -6.983001 ], [ 107.61854, -6.982742000999963 ], [ 107.618610576000037, -6.982686822999938 ], [ 107.61887, -6.982484 ], [ 107.618904863000068, -6.982441952999977 ], [ 107.619035, -6.982285 ], [ 107.6191, -6.982053 ], [ 107.619107, -6.981821 ], [ 107.619039001000033, -6.981548000999965 ], [ 107.618961204000072, -6.981414746999974 ], [ 107.61893800100006, -6.981374997999978 ], [ 107.618838, -6.981284998999968 ], [ 107.618338, -6.980808 ], [ 107.618208997000067, -6.980683872999975 ], [ 107.61812175700004, -6.980599929999926 ], [ 107.618047001000036, -6.980528 ], [ 107.617796, -6.980074000999934 ], [ 107.617724317000068, -6.979858342999933 ], [ 107.617678, -6.979719 ], [ 107.617659, -6.979256 ], [ 107.617691911000065, -6.978926358999956 ], [ 107.617721, -6.978634998999951 ], [ 107.617719780000073, -6.978572691999943 ], [ 107.617710810000062, -6.978114380999955 ], [ 107.617710001000034, -6.978073 ], [ 107.617709968000042, -6.978072889999964 ], [ 107.6176, -6.977693000999977 ], [ 107.617493608000075, -6.977467898999976 ], [ 107.617453893000061, -6.977383869999926 ], [ 107.617315, -6.977090000999965 ], [ 107.617288482000049, -6.977052390999972 ], [ 107.617278161000058, -6.977037752999934 ], [ 107.616872923000074, -6.976463 ], [ 107.616856001000087, -6.976439 ], [ 107.616693430000055, -6.976290354999946 ], [ 107.616534388000048, -6.976144935999969 ], [ 107.616411452000079, -6.976025618999927 ], [ 107.616389, -6.976012000999958 ], [ 107.615964999000084, -6.975766 ], [ 107.6156, -6.975644 ], [ 107.615301, -6.975654 ], [ 107.61501538400006, -6.975742690999937 ], [ 107.614921, -6.975772 ], [ 107.614859822000085, -6.97581358399998 ], [ 107.614798643000086, -6.975855167999953 ], [ 107.614683292000052, -6.975933573999953 ], [ 107.61464, -6.975963 ], [ 107.614600733000088, -6.976004691999947 ], [ 107.614421023000034, -6.97619549999996 ], [ 107.614401412000063, -6.976216321999971 ], [ 107.614138, -6.976496 ], [ 107.614006, -6.976687 ], [ 107.61398317000004, -6.976715010999953 ], [ 107.613916495000069, -6.976796815999933 ], [ 107.613627, -6.977152 ], [ 107.613480970000069, -6.977350222999974 ], [ 107.613364, -6.977509 ], [ 107.613256670000055, -6.977612201999932 ], [ 107.613236626000059, -6.977631474999953 ], [ 107.613026, -6.977834 ], [ 107.612721, -6.978092 ], [ 107.612514289000046, -6.978200847999972 ], [ 107.612513999000043, -6.978201 ], [ 107.612446048000038, -6.978216669999938 ], [ 107.612076, -6.978302 ], [ 107.611710999000081, -6.978304 ], [ 107.611146999000084, -6.978258000999972 ], [ 107.610616001000039, -6.978211 ], [ 107.610078, -6.978214 ], [ 107.609656, -6.978332 ], [ 107.609575350000057, -6.978397497999936 ], [ 107.609491, -6.978466 ], [ 107.609367782000049, -6.97857087899996 ], [ 107.609275999000033, -6.978649 ], [ 107.60906054700007, -6.978934336999941 ], [ 107.608881795000059, -6.97917106999995 ], [ 107.608800697000049, -6.979400459999965 ], [ 107.608728695000082, -6.979583339999976 ], [ 107.608658585000057, -6.979727173999947 ], [ 107.60857526500007, -6.97986816699995 ], [ 107.608387107000055, -6.980128125999954 ], [ 107.608255840000083, -6.980291553999962 ], [ 107.608074184000088, -6.980454060999932 ], [ 107.607870289000061, -6.980608505999953 ], [ 107.607640658000037, -6.98075106999994 ], [ 107.607511197000065, -6.980820395999956 ], [ 107.607388917000037, -6.980872975999944 ], [ 107.607301089000089, -6.980898277999927 ], [ 107.607255179000049, -6.980905553999946 ], [ 107.607153194000034, -6.980921716999944 ], [ 107.60706513100007, -6.980926175999969 ], [ 107.606927311000049, -6.980918416999941 ], [ 107.60679203400008, -6.98089725899996 ], [ 107.606582490000051, -6.980852409999954 ], [ 107.606398580000075, -6.980794418999949 ], [ 107.60622365200004, -6.980726224999955 ], [ 107.606060477000085, -6.980644000999973 ], [ 107.605679116000033, -6.980430948999981 ], [ 107.605408457000067, -6.98029854899994 ], [ 107.605022854000083, -6.98015148099995 ], [ 107.604507, -6.980013 ], [ 107.604411330000062, -6.979999921999934 ], [ 107.604298354000036, -6.979994806999969 ], [ 107.604116526000041, -6.98000154999994 ], [ 107.603995987000076, -6.980013692999933 ], [ 107.603684398000041, -6.980095750999965 ], [ 107.603390440000055, -6.980250397999953 ], [ 107.60314059500007, -6.980420103999961 ], [ 107.602921273000049, -6.980570513999965 ], [ 107.602444956000056, -6.980982483999981 ], [ 107.602172678000045, -6.981249865999928 ], [ 107.601630670000077, -6.98172627699995 ], [ 107.601466836000043, -6.981871597999941 ], [ 107.601393478000034, -6.981934168999942 ], [ 107.60137923700006, -6.981955288999927 ], [ 107.601369771000066, -6.981974468999965 ], [ 107.601367978000042, -6.981996475999949 ], [ 107.601375999000084, -6.982027 ], [ 107.601346, -6.982003291999945 ], [ 107.601332563000085, -6.98199667199998 ], [ 107.601318163000087, -6.981989099999964 ], [ 107.601307650000081, -6.981992026999933 ], [ 107.601281897000035, -6.982008427999972 ], [ 107.601241818000062, -6.982030645999941 ], [ 107.601175065000064, -6.982075965999968 ], [ 107.601093087000038, -6.982137627999975 ], [ 107.600916640000037, -6.982252413999959 ], [ 107.600646825000069, -6.982446138999933 ], [ 107.600382726000078, -6.982635051999978 ], [ 107.600119175000088, -6.98283483299997 ], [ 107.600086462000036, -6.98285627599995 ], [ 107.599987963000046, -6.982923751999977 ], [ 107.599955488000035, -6.982936363999954 ], [ 107.599944007000033, -6.982937383999968 ], [ 107.599922912000068, -6.982930805999956 ], [ 107.599910353000041, -6.98290983399994 ], [ 107.599843515000089, -6.982802364999941 ], [ 107.599756576000061, -6.982624474999966 ], [ 107.599730589000046, -6.982571425999936 ], [ 107.599697178000042, -6.982490254999959 ], [ 107.599692125000047, -6.982468758999971 ], [ 107.599687621000044, -6.982443380999939 ], [ 107.599686516000077, -6.982416606999948 ], [ 107.599691043000064, -6.982369718999962 ], [ 107.59969946700005, -6.982335241999976 ], [ 107.599714549000055, -6.982293076999952 ], [ 107.599738175000084, -6.982222254999954 ], [ 107.599752651000074, -6.982158251999977 ], [ 107.599769759000083, -6.982065383999952 ], [ 107.599894187000075, -6.981717522999929 ], [ 107.600030935000063, -6.981291637999959 ], [ 107.600033324000037, -6.981268913999941 ], [ 107.600033407000069, -6.98122456699997 ], [ 107.60003110100007, -6.981202942999971 ], [ 107.60003000200004, -6.981177125999977 ], [ 107.600029891000077, -6.98115704199995 ], [ 107.600031583000089, -6.981116863999944 ], [ 107.600039759000083, -6.981037436999941 ], [ 107.600059205000036, -6.980918735999978 ], [ 107.600080464000087, -6.980781852999939 ], [ 107.600089750000052, -6.980730154999947 ], [ 107.600103828000044, -6.980679387999942 ], [ 107.600190811000061, -6.980417313999965 ], [ 107.600213967000059, -6.980344039999977 ], [ 107.600243184000078, -6.980261627999937 ], [ 107.600275199000066, -6.980183782999973 ], [ 107.600320894000049, -6.980090763999954 ], [ 107.600341467000078, -6.980033697999943 ], [ 107.600384206000058, -6.979972015999977 ], [ 107.600394618000053, -6.979950917999929 ], [ 107.600401186000056, -6.979926970999941 ], [ 107.600403984000081, -6.979913565999937 ], [ 107.600409751000086, -6.97988724399994 ], [ 107.60042254800004, -6.979844516999947 ], [ 107.600461971000072, -6.979752532999953 ], [ 107.600516497000058, -6.979661410999938 ], [ 107.600542991000054, -6.979605793999951 ], [ 107.600576016000048, -6.979519534999952 ], [ 107.600689773000056, -6.979208308999944 ], [ 107.600739624000084, -6.97907461899996 ], [ 107.600744327000086, -6.979065 ], [ 107.600773992000086, -6.978970423999954 ], [ 107.600794817000065, -6.978928227999972 ], [ 107.600829322000038, -6.978874363999978 ], [ 107.60084207500006, -6.978838033999978 ], [ 107.60084958200008, -6.978792115999966 ], [ 107.600853179000069, -6.978576904999954 ], [ 107.60085213800005, -6.978561608999939 ], [ 107.600849161000042, -6.978542496999978 ], [ 107.600837521000074, -6.97851482599998 ], [ 107.600829759000078, -6.978495739999971 ], [ 107.600823899000034, -6.978474731999938 ], [ 107.600808448000066, -6.97844994999997 ], [ 107.600799749000089, -6.978434695999965 ], [ 107.600741188000086, -6.978403457999946 ], [ 107.600722917000041, -6.97838825599996 ], [ 107.600714176000054, -6.978365349999933 ], [ 107.600710273000061, -6.978351981999936 ], [ 107.600707296000053, -6.978332870999964 ], [ 107.600660031000075, -6.978270061999979 ], [ 107.60056895300005, -6.978183329999979 ], [ 107.600536218000059, -6.978159141999981 ], [ 107.600439184000038, -6.978118221999978 ], [ 107.600378902000045, -6.97810263599996 ], [ 107.60019287700004, -6.978086321999967 ], [ 107.599868654000034, -6.978134015999956 ], [ 107.599488, -6.978248 ], [ 107.599480190000065, -6.978291686999967 ], [ 107.599457530000052, -6.978354583999931 ], [ 107.599442680000038, -6.978373793999936 ], [ 107.599379513000088, -6.978418375999979 ], [ 107.599227966000058, -6.978492136999932 ], [ 107.599046423000061, -6.978550521999978 ], [ 107.598899398000071, -6.978576437999948 ], [ 107.598635095000077, -6.978598217999945 ], [ 107.598067939000089, -6.978594168999962 ], [ 107.597809440000049, -6.978583637999975 ], [ 107.597550901000034, -6.97856593399996 ], [ 107.597360534000074, -6.978543071999979 ], [ 107.597053159000041, -6.978503986999954 ], [ 107.59680602800006, -6.978514168999936 ], [ 107.596714555000062, -6.978526521999981 ], [ 107.596543438000083, -6.978577323999957 ], [ 107.596476119000044, -6.978607901999965 ], [ 107.596243013000048, -6.97875963499996 ], [ 107.596092893000048, -6.978875229999971 ], [ 107.595968943000059, -6.978963184999941 ], [ 107.595793658000048, -6.979071744999942 ], [ 107.595632493000039, -6.97913718999996 ], [ 107.595558490000087, -6.979169875999958 ], [ 107.595331606000059, -6.979251223999938 ], [ 107.595279087000051, -6.979274227999952 ], [ 107.595226667000077, -6.979315162999967 ], [ 107.595213651000051, -6.979341535999936 ], [ 107.595192418000067, -6.97939664699993 ], [ 107.595179336000058, -6.979411064999965 ], [ 107.59512211100008, -6.979448439999942 ], [ 107.59502671100006, -6.979506349999951 ], [ 107.59490749400004, -6.979584713999941 ], [ 107.594745432000082, -6.979680716999951 ], [ 107.59449049300008, -6.979906209999967 ], [ 107.594258173000071, -6.980086814999936 ], [ 107.593936282000072, -6.98029779999996 ], [ 107.593677665000087, -6.980483330999959 ], [ 107.593566783000085, -6.980554476999941 ], [ 107.593441497000072, -6.980617331999952 ], [ 107.593332857000064, -6.980660967999938 ], [ 107.592945647000079, -6.980798059999927 ], [ 107.592731097000069, -6.980860929999949 ], [ 107.592237849000071, -6.980950562999965 ], [ 107.592081252000071, -6.980982130999962 ], [ 107.591986972000086, -6.980982096999981 ], [ 107.591929499000059, -6.980974641999978 ], [ 107.591801359000044, -6.980953826999951 ], [ 107.59169705000005, -6.980914947999963 ], [ 107.591611818000047, -6.980864009999948 ], [ 107.591572785000039, -6.980837325999971 ], [ 107.591506791000086, -6.980775170999948 ], [ 107.591405690000045, -6.98064216299997 ], [ 107.591390320000073, -6.980620146999968 ], [ 107.59116242500005, -6.980310046999932 ], [ 107.591091170000084, -6.980180645999951 ], [ 107.590834431000076, -6.979770473999963 ], [ 107.590632071000073, -6.979354572999966 ], [ 107.590567840000062, -6.979227109999954 ], [ 107.590545002000056, -6.979208107999966 ], [ 107.590523360000077, -6.979189097999949 ], [ 107.590496986000062, -6.979179678999969 ], [ 107.590413273000081, -6.979187311999965 ], [ 107.590382165000051, -6.979187482999976 ], [ 107.590363015000037, -6.979186392999964 ], [ 107.590340197000046, -6.979170975999978 ], [ 107.590328140000054, -6.979154304999952 ], [ 107.590311265000082, -6.979131682999935 ], [ 107.590291977000049, -6.979105487999959 ], [ 107.590266707000069, -6.97907932499993 ], [ 107.590191086000061, -6.979035506999935 ], [ 107.590054289000079, -6.978963330999932 ], [ 107.58993190800004, -6.978911187999927 ], [ 107.589891242000078, -6.978904450999948 ], [ 107.589842141000076, -6.978896351999936 ], [ 107.589815786000088, -6.978890518999947 ], [ 107.589778597000077, -6.978872790999958 ], [ 107.589676541000074, -6.978812388999927 ], [ 107.589645131000054, -6.978719720999948 ], [ 107.589665883000066, -6.978107121999926 ], [ 107.589683516000036, -6.977710483999942 ], [ 107.589697276000038, -6.977578179999966 ], [ 107.58970759500005, -6.977365799999973 ], [ 107.589612783000064, -6.977356755999949 ], [ 107.589612546000069, -6.977313718999937 ], [ 107.589609249000034, -6.977236267999956 ], [ 107.58960864900007, -6.977127239999959 ], [ 107.589599388000067, -6.977009651999936 ], [ 107.589584620000039, -6.976935132999927 ], [ 107.58951223400004, -6.976826498999969 ], [ 107.589457376000041, -6.976772284999981 ], [ 107.591889184000081, -6.978889494999976 ], [ 107.594312544000047, -6.97738844099996 ], [ 107.597469668831522, -6.975979867487331 ], [ 107.600868861000038, -6.975317405999931 ], [ 107.604912230000082, -6.972744741999975 ], [ 107.606781064000074, -6.974613832999978 ], [ 107.609568073000048, -6.972529197999961 ], [ 107.613224892461616, -6.971529918828446 ], [ 107.617283606000058, -6.971684350999965 ], [ 107.621794050352051, -6.972010994359135 ], [ 107.62149337814536, -6.976370741356014 ], [ 107.621854184793378, -6.98067035391156 ], [ 107.623628150812792, -6.982594656034321 ], [ 107.627577131000066, -6.984571926999934 ], [ 107.629664995000041, -6.988020065999933 ], [ 107.631047944038784, -6.98932158963864 ], [ 107.631064733000073, -6.989744243999951 ] ] ] ] } }
]
}
